CCSDS_OMM_VERS = 2.0
CREATION_DATE  = 
ORIGINATOR     = 

OBJECT_NAME    = STARLINK-35588
OBJECT_ID      = 2025-259C
CENTER_NAME    = EARTH
REF_FRAME      = TEME
TIME_SYSTEM    = UTC
MEAN_ELEMENT_THEORY = SGP/SGP4

EPOCH          = 2025-12-04T14:00:01.000224
MEAN_MOTION    = 15.45392507
ECCENTRICITY   = .00016035
INCLINATION    = 43.0004
RA_OF_ASC_NODE = 95.0684
ARG_OF_PERICENTER = 277.6215
MEAN_ANOMALY   = 108.9285

EPHEMERIS_TYPE = 0
CLASSIFICATION_TYPE = U
NORAD_CAT_ID   = 66424
ELEMENT_SET_NO = 999
REV_AT_EPOCH   = 496
BSTAR          = -.47270296E-1
MEAN_MOTION_DOT = -.2056291E-1
MEAN_MOTION_DDOT = 0

CCSDS_OMM_VERS = 2.0
CREATION_DATE  = 
ORIGINATOR     = 

OBJECT_NAME    = STARLINK-35555
OBJECT_ID      = 2025-259D
CENTER_NAME    = EARTH
REF_FRAME      = TEME
TIME_SYSTEM    = UTC
MEAN_ELEMENT_THEORY = SGP/SGP4

EPOCH          = 2025-12-04T14:00:01.000224
MEAN_MOTION    = 15.46729964
ECCENTRICITY   = .00015957
INCLINATION    = 43.0001
RA_OF_ASC_NODE = 95.0499
ARG_OF_PERICENTER = 283.2511
MEAN_ANOMALY   = 110.0254

EPHEMERIS_TYPE = 0
CLASSIFICATION_TYPE = U
NORAD_CAT_ID   = 66425
ELEMENT_SET_NO = 999
REV_AT_EPOCH   = 496
BSTAR          = -.45358331E-1
MEAN_MOTION_DOT = -.20659E-1
MEAN_MOTION_DDOT = 0

CCSDS_OMM_VERS = 2.0
CREATION_DATE  = 
ORIGINATOR     = 

OBJECT_NAME    = STARLINK-35589
OBJECT_ID      = 2025-259E
CENTER_NAME    = EARTH
REF_FRAME      = TEME
TIME_SYSTEM    = UTC
MEAN_ELEMENT_THEORY = SGP/SGP4

EPOCH          = 2025-12-04T14:00:01.000224
MEAN_MOTION    = 15.48063247
ECCENTRICITY   = .00015245
INCLINATION    = 43.0002
RA_OF_ASC_NODE = 95.0381
ARG_OF_PERICENTER = 284.5689
MEAN_ANOMALY   = 114.0245

EPHEMERIS_TYPE = 0
CLASSIFICATION_TYPE = U
NORAD_CAT_ID   = 66426
ELEMENT_SET_NO = 999
REV_AT_EPOCH   = 496
BSTAR          = -.43657566E-1
MEAN_MOTION_DOT = -.2081739E-1
MEAN_MOTION_DDOT = 0

CCSDS_OMM_VERS = 2.0
CREATION_DATE  = 
ORIGINATOR     = 

OBJECT_NAME    = STARLINK-35611
OBJECT_ID      = 2025-259F
CENTER_NAME    = EARTH
REF_FRAME      = TEME
TIME_SYSTEM    = UTC
MEAN_ELEMENT_THEORY = SGP/SGP4

EPOCH          = 2025-12-04T14:00:01.000224
MEAN_MOTION    = 15.49388645
ECCENTRICITY   = .00014656
INCLINATION    = 43.0003
RA_OF_ASC_NODE = 95.0276
ARG_OF_PERICENTER = 277.4582
MEAN_ANOMALY   = 125.0365

EPHEMERIS_TYPE = 0
CLASSIFICATION_TYPE = U
NORAD_CAT_ID   = 66427
ELEMENT_SET_NO = 999
REV_AT_EPOCH   = 496
BSTAR          = -.41623672E-1
MEAN_MOTION_DOT = -.2080418E-1
MEAN_MOTION_DDOT = 0

CCSDS_OMM_VERS = 2.0
CREATION_DATE  = 
ORIGINATOR     = 

OBJECT_NAME    = STARLINK-35610
OBJECT_ID      = 2025-259G
CENTER_NAME    = EARTH
REF_FRAME      = TEME
TIME_SYSTEM    = UTC
MEAN_ELEMENT_THEORY = SGP/SGP4

EPOCH          = 2025-12-04T14:00:01.000224
MEAN_MOTION    = 15.50681599
ECCENTRICITY   = .00015728
INCLINATION    = 43.0003
RA_OF_ASC_NODE = 95.0216
ARG_OF_PERICENTER = 282.9646
MEAN_ANOMALY   = 122.0360

EPHEMERIS_TYPE = 0
CLASSIFICATION_TYPE = U
NORAD_CAT_ID   = 66428
ELEMENT_SET_NO = 999
REV_AT_EPOCH   = 496
BSTAR          = -.39164855E-1
MEAN_MOTION_DOT = -.2053652E-1
MEAN_MOTION_DDOT = 0

CCSDS_OMM_VERS = 2.0
CREATION_DATE  = 
ORIGINATOR     = 

OBJECT_NAME    = STARLINK-35533
OBJECT_ID      = 2025-259H
CENTER_NAME    = EARTH
REF_FRAME      = TEME
TIME_SYSTEM    = UTC
MEAN_ELEMENT_THEORY = SGP/SGP4

EPOCH          = 2025-12-04T14:00:01.000224
MEAN_MOTION    = 15.50733687
ECCENTRICITY   = .00014843
INCLINATION    = 43.0004
RA_OF_ASC_NODE = 95.0158
ARG_OF_PERICENTER = 281.7539
MEAN_ANOMALY   = 125.1337

EPHEMERIS_TYPE = 0
CLASSIFICATION_TYPE = U
NORAD_CAT_ID   = 66429
ELEMENT_SET_NO = 999
REV_AT_EPOCH   = 496
BSTAR          = -.92967913E-2
MEAN_MOTION_DOT = -.514217E-2
MEAN_MOTION_DDOT = 0

CCSDS_OMM_VERS = 2.0
CREATION_DATE  = 
ORIGINATOR     = 

OBJECT_NAME    = STARLINK-35470
OBJECT_ID      = 2025-259J
CENTER_NAME    = EARTH
REF_FRAME      = TEME
TIME_SYSTEM    = UTC
MEAN_ELEMENT_THEORY = SGP/SGP4

EPOCH          = 2025-12-04T14:00:01.000224
MEAN_MOTION    = 15.50536076
ECCENTRICITY   = .00016097
INCLINATION    = 43.0004
RA_OF_ASC_NODE = 95.0122
ARG_OF_PERICENTER = 254.1928
MEAN_ANOMALY   = 154.6429

EPHEMERIS_TYPE = 0
CLASSIFICATION_TYPE = U
NORAD_CAT_ID   = 66430
ELEMENT_SET_NO = 999
REV_AT_EPOCH   = 496
BSTAR          = .32249256E-3
MEAN_MOTION_DOT = .18593E-3
MEAN_MOTION_DDOT = 0

CCSDS_OMM_VERS = 2.0
CREATION_DATE  = 
ORIGINATOR     = 

OBJECT_NAME    = STARLINK-35439
OBJECT_ID      = 2025-259K
CENTER_NAME    = EARTH
REF_FRAME      = TEME
TIME_SYSTEM    = UTC
MEAN_ELEMENT_THEORY = SGP/SGP4

EPOCH          = 2025-12-04T14:00:01.000224
MEAN_MOTION    = 15.50599009
ECCENTRICITY   = .00016524
INCLINATION    = 43.0003
RA_OF_ASC_NODE = 95.0065
ARG_OF_PERICENTER = 269.4739
MEAN_ANOMALY   = 141.2794

EPHEMERIS_TYPE = 0
CLASSIFICATION_TYPE = U
NORAD_CAT_ID   = 66431
ELEMENT_SET_NO = 999
REV_AT_EPOCH   = 496
BSTAR          = -.23294172E-2
MEAN_MOTION_DOT = -.134771E-2
MEAN_MOTION_DDOT = 0

CCSDS_OMM_VERS = 2.0
CREATION_DATE  = 
ORIGINATOR     = 

OBJECT_NAME    = STARLINK-35446
OBJECT_ID      = 2025-259L
CENTER_NAME    = EARTH
REF_FRAME      = TEME
TIME_SYSTEM    = UTC
MEAN_ELEMENT_THEORY = SGP/SGP4

EPOCH          = 2025-12-04T14:00:01.000224
MEAN_MOTION    = 15.50570427
ECCENTRICITY   = .00014056
INCLINATION    = 43.0004
RA_OF_ASC_NODE = 95.0006
ARG_OF_PERICENTER = 282.3932
MEAN_ANOMALY   = 130.2562

EPHEMERIS_TYPE = 0
CLASSIFICATION_TYPE = U
NORAD_CAT_ID   = 66432
ELEMENT_SET_NO = 999
REV_AT_EPOCH   = 496
BSTAR          = -.84234423E-3
MEAN_MOTION_DOT = -.49431E-3
MEAN_MOTION_DDOT = 0

CCSDS_OMM_VERS = 2.0
CREATION_DATE  = 
ORIGINATOR     = 

OBJECT_NAME    = STARLINK-35457
OBJECT_ID      = 2025-259M
CENTER_NAME    = EARTH
REF_FRAME      = TEME
TIME_SYSTEM    = UTC
MEAN_ELEMENT_THEORY = SGP/SGP4

EPOCH          = 2025-12-04T14:00:01.000224
MEAN_MOTION    = 15.50552504
ECCENTRICITY   = .00014923
INCLINATION    = 43.0003
RA_OF_ASC_NODE = 94.9975
ARG_OF_PERICENTER = 258.7466
MEAN_ANOMALY   = 155.8415

EPHEMERIS_TYPE = 0
CLASSIFICATION_TYPE = U
NORAD_CAT_ID   = 66433
ELEMENT_SET_NO = 999
REV_AT_EPOCH   = 496
BSTAR          = -.56111166E-3
MEAN_MOTION_DOT = -.33089E-3
MEAN_MOTION_DDOT = 0

CCSDS_OMM_VERS = 2.0
CREATION_DATE  = 
ORIGINATOR     = 

OBJECT_NAME    = STARLINK-35389
OBJECT_ID      = 2025-259N
CENTER_NAME    = EARTH
REF_FRAME      = TEME
TIME_SYSTEM    = UTC
MEAN_ELEMENT_THEORY = SGP/SGP4

EPOCH          = 2025-12-04T14:00:01.000224
MEAN_MOTION    = 15.50555774
ECCENTRICITY   = .00013434
INCLINATION    = 43.0003
RA_OF_ASC_NODE = 94.9928
ARG_OF_PERICENTER = 261.5420
MEAN_ANOMALY   = 154.9620

EPHEMERIS_TYPE = 0
CLASSIFICATION_TYPE = U
NORAD_CAT_ID   = 66434
ELEMENT_SET_NO = 999
REV_AT_EPOCH   = 496
BSTAR          = -.64685874E-3
MEAN_MOTION_DOT = -.38074E-3
MEAN_MOTION_DDOT = 0

CCSDS_OMM_VERS = 2.0
CREATION_DATE  = 
ORIGINATOR     = 

OBJECT_NAME    = STARLINK-35502
OBJECT_ID      = 2025-259P
CENTER_NAME    = EARTH
REF_FRAME      = TEME
TIME_SYSTEM    = UTC
MEAN_ELEMENT_THEORY = SGP/SGP4

EPOCH          = 2025-12-04T14:00:01.000224
MEAN_MOTION    = 15.50569194
ECCENTRICITY   = .00015195
INCLINATION    = 43.0003
RA_OF_ASC_NODE = 94.9888
ARG_OF_PERICENTER = 262.9873
MEAN_ANOMALY   = 155.4286

EPHEMERIS_TYPE = 0
CLASSIFICATION_TYPE = U
NORAD_CAT_ID   = 66435
ELEMENT_SET_NO = 999
REV_AT_EPOCH   = 496
BSTAR          = -.10798035E-2
MEAN_MOTION_DOT = -.63158E-3
MEAN_MOTION_DDOT = 0

