STARLINK-35588          
1 66424U 25259C   25338.58334491 -.02056291  00000+0 -47270-1 0  9990
2 66424  43.0004  95.0684 0001603 277.6215 108.9285 15.45392507  4960
STARLINK-35555          
1 66425U 25259D   25338.58334491 -.02065900  00000+0 -45358-1 0  9993
2 66425  43.0001  95.0499 0001595 283.2511 110.0254 15.46729964  4966
STARLINK-35589          
1 66426U 25259E   25338.58334491 -.02081739  00000+0 -43658-1 0  9993
2 66426  43.0002  95.0381 0001524 284.5689 114.0245 15.48063247  4961
STARLINK-35611          
1 66427U 25259F   25338.58334491 -.02080418  00000+0 -41624-1 0  9998
2 66427  43.0003  95.0276 0001465 277.4582 125.0365 15.49388645  4961
STARLINK-35610          
1 66428U 25259G   25338.58334491 -.02053652  00000+0 -39165-1 0  9996
2 66428  43.0003  95.0216 0001572 282.9646 122.0360 15.50681599  4965
STARLINK-35533          
1 66429U 25259H   25338.58334491 -.00514217  00000+0 -92968-2 0  9995
2 66429  43.0004  95.0158 0001484 281.7539 125.1337 15.50733687  4966
STARLINK-35470          
1 66430U 25259J   25338.58334491  .00018593  00000+0  32249-3 0  9998
2 66430  43.0004  95.0122 0001609 254.1928 154.6429 15.50536076  4966
STARLINK-35439          
1 66431U 25259K   25338.58334491 -.00134771  00000+0 -23294-2 0  9997
2 66431  43.0003  95.0065 0001652 269.4739 141.2794 15.50599009  4961
STARLINK-35446          
1 66432U 25259L   25338.58334491 -.00049431  00000+0 -84234-3 0  9998
2 66432  43.0004  95.0006 0001405 282.3932 130.2562 15.50570427  4967
STARLINK-35457          
1 66433U 25259M   25338.58334491 -.00033089  00000+0 -56111-3 0  9994
2 66433  43.0003  94.9975 0001492 258.7466 155.8415 15.50552504  4961
STARLINK-35389          
1 66434U 25259N   25338.58334491 -.00038074  00000+0 -64686-3 0  9990
2 66434  43.0003  94.9928 0001343 261.5420 154.9620 15.50555774  4967
STARLINK-35502          
1 66435U 25259P   25338.58334491 -.00063158  00000+0 -10798-2 0  9996
2 66435  43.0003  94.9888 0001519 262.9873 155.4286 15.50569194  4960
